CTC1_L_00382001-01
1 75706U 25531TH  26037.47805556  .00000000  00000+0  00000-0 0  9998
2 75706  40.0000   0.0000 0000000   0.0000   0.0000 13.03091717    14
CTC1_L_00382001-02
1 75707U 24275VX  26037.47805556  .00000000  00000+0  00000-0 0  9993
2 75707  40.0000   0.0000 0000000   0.0000  90.0000 13.03091717    14
CTC1_L_00382001-03
1 75708U 22095AS  26037.47805556  .00000000  00000+0  00000-0 0  9992
2 75708  40.0000   0.0000 0000000   0.0000 180.0000 13.03091717    15
CTC1_L_00382001-04
1 75709U 26526MS  26037.47805556  .00000000  00000+0  00000-0 0  9996
2 75709  40.0000   0.0000 0000000   0.0000 270.0000 13.03091717    16
CTC1_L_00382002-01
1 75710U 24670AS  26037.47805556  .00000000  00000+0  00000-0 0  9996
2 75710  40.0000  12.0000 0000000   0.0000  12.0000 13.03091717    15
CTC1_L_00382002-02
1 75711U 22554HW  26037.47805556  .00000000  00000+0  00000-0 0  9996
2 75711  40.0000  12.0000 0000000   0.0000 102.0000 13.03091717    16
CTC1_L_00382002-03
1 75712U 23526ZO  26037.47805556  .00000000  00000+0  00000-0 0  9997
2 75712  40.0000  12.0000 0000000   0.0000 192.0000 13.03091717    16
CTC1_L_00382002-04
1 75713U 24231BX  26037.47805556  .00000000  00000+0  00000-0 0  9992
2 75713  40.0000  12.0000 0000000   0.0000 282.0000 13.03091717    17
CTC1_L_00382003-01
1 75714U 23805MH  26037.47805556  .00000000  00000+0  00000-0 0  9999
2 75714  40.0000  24.0000 0000000   0.0000  24.0000 13.03091717    15
CTC1_L_00382003-02
1 75715U 23178ZQ  26037.47805556  .00000000  00000+0  00000-0 0  9993
2 75715  40.0000  24.0000 0000000   0.0000 114.0000 13.03091717    16
CTC1_L_00382003-03
1 75716U 26343AL  26037.47805556  .00000000  00000+0  00000-0 0  9991
2 75716  40.0000  24.0000 0000000   0.0000 204.0000 13.03091717    17
CTC1_L_00382003-04
1 75717U 22074IL  26037.47805556  .00000000  00000+0  00000-0 0  9999
2 75717  40.0000  24.0000 0000000   0.0000 294.0000 13.03091717    17
CTC1_L_00382004-01
1 75718U 22678EM  26037.47805556  .00000000  00000+0  00000-0 0  9990
2 75718  40.0000  36.0000 0000000   0.0000  36.0000 13.03091717    15
CTC1_L_00382004-02
1 75719U 25849WM  26037.47805556  .00000000  00000+0  00000-0 0  9994
2 75719  40.0000  36.0000 0000000   0.0000 126.0000 13.03091717    16
CTC1_L_00382004-03
1 75720U 23956CP  26037.47805556  .00000000  00000+0  00000-0 0  9993
2 75720  40.0000  36.0000 0000000   0.0000 216.0000 13.03091717    18
CTC1_L_00382004-04
1 75721U 22450GV  26037.47805556  .00000000  00000+0  00000-0 0  9992
2 75721  40.0000  36.0000 0000000   0.0000 306.0000 13.03091717    19
CTC1_L_00382005-01
1 75722U 24033BX  26037.47805556  .00000000  00000+0  00000-0 0  9992
2 75722  40.0000  48.0000 0000000   0.0000  48.0000 13.03091717    16
CTC1_L_00382005-02
1 75723U 25224EV  26037.47805556  .00000000  00000+0  00000-0 0  9996
2 75723  40.0000  48.0000 0000000   0.0000 138.0000 13.03091717    17
CTC1_L_00382005-03
1 75724U 22823RL  26037.47805556  .00000000  00000+0  00000-0 0  9999
2 75724  40.0000  48.0000 0000000   0.0000 228.0000 13.03091717    18
CTC1_L_00382005-04
1 75725U 26372NJ  26037.47805556  .00000000  00000+0  00000-0 0  9993
2 75725  40.0000  48.0000 0000000   0.0000 318.0000 13.03091717    19
CTC1_L_00382006-01
1 75726U 26344KT  26037.47805556  .00000000  00000+0  00000-0 0  9993
2 75726  40.0000  60.0000 0000000   0.0000  60.0000 13.03091717    18
CTC1_L_00382006-02
1 75727U 25442XV  26037.47805556  .00000000  00000+0  00000-0 0  9992
2 75727  40.0000  60.0000 0000000   0.0000 150.0000 13.03091717    19
CTC1_L_00382006-03
1 75728U 23302XT  26037.47805556  .00000000  00000+0  00000-0 0  9996
2 75728  40.0000  60.0000 0000000   0.0000 240.0000 13.03091717    10
CTC1_L_00382006-04
1 75729U 23343TF  26037.47805556  .00000000  00000+0  00000-0 0  9992
2 75729  40.0000  60.0000 0000000   0.0000 330.0000 13.03091717    11
CTC1_L_00382007-01
1 75730U 26143MB  26037.47805556  .00000000  00000+0  00000-0 0  9995
2 75730  40.0000  72.0000 0000000   0.0000  72.0000 13.03091717    19
CTC1_L_00382007-02
1 75731U 22621EO  26037.47805556  .00000000  00000+0  00000-0 0  9993
2 75731  40.0000  72.0000 0000000   0.0000 162.0000 13.03091717    10
CTC1_L_00382007-03
1 75732U 25982Z   26037.47805556  .00000000  00000+0  00000-0 0  9997
2 75732  40.0000  72.0000 0000000   0.0000 252.0000 13.03091717    11
CTC1_L_00382007-04
1 75733U 25682TR  26037.47805556  .00000000  00000+0  00000-0 0  9995
2 75733  40.0000  72.0000 0000000   0.0000 342.0000 13.03091717    12
CTC1_L_00382008-01
1 75734U 23985LN  26037.47805556  .00000000  00000+0  00000-0 0  9990
2 75734  40.0000  84.0000 0000000   0.0000  84.0000 13.03091717    19
CTC1_L_00382008-02
1 75735U 25222LJ  26037.47805556  .00000000  00000+0  00000-0 0  9997
2 75735  40.0000  84.0000 0000000   0.0000 174.0000 13.03091717    10
CTC1_L_00382008-03
1 75736U 25191HD  26037.47805556  .00000000  00000+0  00000-0 0  9993
2 75736  40.0000  84.0000 0000000   0.0000 264.0000 13.03091717    11
CTC1_L_00382008-04
1 75737U 22171KU  26037.47805556  .00000000  00000+0  00000-0 0  9999
2 75737  40.0000  84.0000 0000000   0.0000 354.0000 13.03091717    12
CTC1_L_00382009-01
1 75738U 26867AV  26037.47805556  .00000000  00000+0  00000-0 0  9996
2 75738  40.0000  96.0000 0000000   0.0000  96.0000 13.03091717    19
CTC1_L_00382009-02
1 75739U 24312SZ  26037.47805556  .00000000  00000+0  00000-0 0  9990
2 75739  40.0000  96.0000 0000000   0.0000 186.0000 13.03091717    10
CTC1_L_00382009-03
1 75740U 22770PW  26037.47805556  .00000000  00000+0  00000-0 0  9998
2 75740  40.0000  96.0000 0000000   0.0000 276.0000 13.03091717    12
CTC1_L_00382009-04
1 75741U 23370JO  26037.47805556  .00000000  00000+0  00000-0 0  9996
2 75741  40.0000  96.0000 0000000   0.0000   6.0000 13.03091717    14
CTC1_L_00382010-01
1 75742U 25132QD  26037.47805556  .00000000  00000+0  00000-0 0  9995
2 75742  40.0000 108.0000 0000000   0.0000 108.0000 13.03091717    12
CTC1_L_00382010-02
1 75743U 22998FW  26037.47805556  .00000000  00000+0  00000-0 0  9993
2 75743  40.0000 108.0000 0000000   0.0000 198.0000 13.03091717    12
CTC1_L_00382010-03
1 75744U 23511EX  26037.47805556  .00000000  00000+0  00000-0 0  9996
2 75744  40.0000 108.0000 0000000   0.0000 288.0000 13.03091717    13
CTC1_L_00382010-04
1 75745U 22246XT  26037.47805556  .00000000  00000+0  00000-0 0  9991
2 75745  40.0000 108.0000 0000000   0.0000  18.0000 13.03091717    15
CTC1_L_00382011-01
1 75746U 24267RG  26037.47805556  .00000000  00000+0  00000-0 0  9997
2 75746  40.0000 120.0000 0000000   0.0000 120.0000 13.03091717    14
CTC1_L_00382011-02
1 75747U 25766XU  26037.47805556  .00000000  00000+0  00000-0 0  9993
2 75747  40.0000 120.0000 0000000   0.0000 210.0000 13.03091717    15
CTC1_L_00382011-03
1 75748U 24672HA  26037.47805556  .00000000  00000+0  00000-0 0  9999
2 75748  40.0000 120.0000 0000000   0.0000 300.0000 13.03091717    16
CTC1_L_00382011-04
1 75749U 26202GQ  26037.47805556  .00000000  00000+0  00000-0 0  9991
2 75749  40.0000 120.0000 0000000   0.0000  30.0000 13.03091717    17
CTC1_L_00382012-01
1 75750U 25070SB  26037.47805556  .00000000  00000+0  00000-0 0  9995
2 75750  40.0000 132.0000 0000000   0.0000 132.0000 13.03091717    15
CTC1_L_00382012-02
1 75751U 26629NH  26037.47805556  .00000000  00000+0  00000-0 0  9997
2 75751  40.0000 132.0000 0000000   0.0000 222.0000 13.03091717    16
CTC1_L_00382012-03
1 75752U 22410SK  26037.47805556  .00000000  00000+0  00000-0 0  9992
2 75752  40.0000 132.0000 0000000   0.0000 312.0000 13.03091717    17
CTC1_L_00382012-04
1 75753U 26944FC  26037.47805556  .00000000  00000+0  00000-0 0  9999
2 75753  40.0000 132.0000 0000000   0.0000  42.0000 13.03091717    18
CTC1_L_00382013-01
1 75754U 22822QG  26037.47805556  .00000000  00000+0  00000-0 0  9991
2 75754  40.0000 144.0000 0000000   0.0000 144.0000 13.03091717    15
CTC1_L_00382013-02
1 75755U 26657LA  26037.47805556  .00000000  00000+0  00000-0 0  9992
2 75755  40.0000 144.0000 0000000   0.0000 234.0000 13.03091717    16
CTC1_L_00382013-03
1 75756U 26242FK  26037.47805556  .00000000  00000+0  00000-0 0  9993
2 75756  40.0000 144.0000 0000000   0.0000 324.0000 13.03091717    17
CTC1_L_00382013-04
1 75757U 24487WD  26037.47805556  .00000000  00000+0  00000-0 0  9993
2 75757  40.0000 144.0000 0000000   0.0000  54.0000 13.03091717    18
CTC1_L_00382014-01
1 75758U 23773XJ  26037.47805556  .00000000  00000+0  00000-0 0  9991
2 75758  40.0000 156.0000 0000000   0.0000 156.0000 13.03091717    15
CTC1_L_00382014-02
1 75759U 26318YX  26037.47805556  .00000000  00000+0  00000-0 0  9990
2 75759  40.0000 156.0000 0000000   0.0000 246.0000 13.03091717    16
CTC1_L_00382014-03
1 75760U 24078ZC  26037.47805556  .00000000  00000+0  00000-0 0  9993
2 75760  40.0000 156.0000 0000000   0.0000 336.0000 13.03091717    18
CTC1_L_00382014-04
1 75761U 22742ZU  26037.47805556  .00000000  00000+0  00000-0 0  9990
2 75761  40.0000 156.0000 0000000   0.0000  66.0000 13.03091717    19
CTC1_L_00382015-01
1 75762U 24024HI  26037.47805556  .00000000  00000+0  00000-0 0  9996
2 75762  40.0000 168.0000 0000000   0.0000 168.0000 13.03091717    16
CTC1_L_00382015-02
1 75763U 23508PM  26037.47805556  .00000000  00000+0  00000-0 0  9993
2 75763  40.0000 168.0000 0000000   0.0000 258.0000 13.03091717    17
CTC1_L_00382015-03
1 75764U 25491ML  26037.47805556  .00000000  00000+0  00000-0 0  9997
2 75764  40.0000 168.0000 0000000   0.0000 348.0000 13.03091717    18
CTC1_L_00382015-04
1 75765U 22051JI  26037.47805556  .00000000  00000+0  00000-0 0  9997
2 75765  40.0000 168.0000 0000000   0.0000  78.0000 13.03091717    19
CTC1_L_00382016-01
1 75766U 22840SI  26037.47805556  .00000000  00000+0  00000-0 0  9994
2 75766  40.0000 180.0000 0000000   0.0000 180.0000 13.03091717    18
CTC1_L_00382016-02
1 75767U 25051CD  26037.47805556  .00000000  00000+0  00000-0 0  9992
2 75767  40.0000 180.0000 0000000   0.0000 270.0000 13.03091717    19
